{"type": "FeatureCollection", "features": [ {"type": "Feature", "properties": {"norad_id": 31182, "name": "FENGYUN 1C DEB", "group": "fengyun-1c-debris", "lat": 81.01399909720998, "lon": -84.7402355290778, "alt_km": 819.4254988157509, "timestamp": "2025-12-27T21:25:02.795240+00:00", "meta": {"OBJECT_NAME": "FENGYUN 1C DEB", "OBJECT_ID": "1999-025BJL", "EPOCH": "2025-12-22T19:20:53.254752", "MEAN_MOTION": 14.1456637, "ECCENTRICITY": 0.00235309, "INCLINATION": 98.6826, "RA_OF_ASC_NODE": 345.4013, "ARG_OF_PERICENTER": 108.6535, "MEAN_ANOMALY": 12.2806, "EPHEMERIS_TYPE": 0, "CLASSIFICATION_TYPE": "U", "NORAD_CAT_ID": 31182, "ELEMENT_SET_NO": 999, "REV_AT_EPOCH": 96223, "BSTAR": 0.00031151956, "MEAN_MOTION_DOT": 5.57e-06, "MEAN_MOTION_DDOT": 0}, "tle": {"line1": "1 31182U 99025BJL 25356.80617193  .00000557  00000+0  31152-3 0  9997", "line2": "2 31182  98.6826 345.4013 0023530 108.6535  12.2806 14.14566370962235"}}, "geometry": {"type": "Point", "coordinates": [-84.7402355290778, 81.01399909720998]}}, {"type": "Feature", "properties": {"norad_id": 31183, "name": "FENGYUN 1C DEB", "group": "fengyun-1c-debris", "lat": 21.23695958460941, "lon": 170.27938413084328, "alt_km": 726.6878194917099, "timestamp": "2025-12-27T21:25:02.795251+00:00", "meta": {"OBJECT_NAME": "FENGYUN 1C DEB", "OBJECT_ID": "1999-025BJM", "EPOCH": "2025-12-26T10:37:27.297120", "MEAN_MOTION": 14.50562406, "ECCENTRICITY": 0.0047805, "INCLINATION": 99.0384, "RA_OF_ASC_NODE": 345.1775, "ARG_OF_PERICENTER": 67.2137, "MEAN_ANOMALY": 84.4667, "EPHEMERIS_TYPE": 0, "CLASSIFICATION_TYPE": "U", "NORAD_CAT_ID": 31183, "ELEMENT_SET_NO": 999, "REV_AT_EPOCH": 97681, "BSTAR": 0.0013516, "MEAN_MOTION_DOT": 5.326e-05, "MEAN_MOTION_DDOT": 0}, "tle": {"line1": "1 31183U 99025BJM 25360.44267705  .00005326  00000+0  13516-2 0  9995", "line2": "2 31183  99.0384 345.1775 0047805  67.2137  84.4667 14.50562406976812"}}, "geometry": {"type": "Point", "coordinates": [170.27938413084328, 21.23695958460941]}}, {"type": "Feature", "properties": {"norad_id": 31185, "name": "FENGYUN 1C DEB", "group": "fengyun-1c-debris", "lat": 40.36137088376133, "lon": -9.67949441506917, "alt_km": 852.3231422497302, "timestamp": "2025-12-27T21:25:02.795263+00:00", "meta": {"OBJECT_NAME": "FENGYUN 1C DEB", "OBJECT_ID": "1999-025BJP", "EPOCH": "2025-12-03T06:44:56.905152", "MEAN_MOTION": 14.03019915, "ECCENTRICITY": 0.0041359, "INCLINATION": 98.8321, "RA_OF_ASC_NODE": 334.0356, "ARG_OF_PERICENTER": 132.5488, "MEAN_ANOMALY": 227.9182, "EPHEMERIS_TYPE": 0, "CLASSIFICATION_TYPE": "U", "NORAD_CAT_ID": 31185, "ELEMENT_SET_NO": 999, "REV_AT_EPOCH": 62204, "BSTAR": 0.0004459, "MEAN_MOTION_DOT": 6.55e-06, "MEAN_MOTION_DDOT": 0}, "tle": {"line1": "1 31185U 99025BJP 25337.28121418  .00000655  00000+0  44590-3 0  9990", "line2": "2 31185  98.8321 334.0356 0041359 132.5488 227.9182 14.03019915622046"}}, "geometry": {"type": "Point", "coordinates": [-9.67949441506917, 40.36137088376133]}}, {"type": "Feature", "properties": {"norad_id": 31186, "name": "FENGYUN 1C DEB", "group": "fengyun-1c-debris", "lat": 42.37768664603979, "lon": -90.8546639370109, "alt_km": 828.0938364923477, "timestamp": "2025-12-27T21:25:02.795275+00:00", "meta": {"OBJECT_NAME": "FENGYUN 1C DEB", "OBJECT_ID": "1999-025BJQ", "EPOCH": "2025-12-25T13:43:17.153184", "MEAN_MOTION": 14.12928347, "ECCENTRICITY": 0.0026325, "INCLINATION": 99.179, "RA_OF_ASC_NODE": 275.2512, "ARG_OF_PERICENTER": 28.2591, "MEAN_ANOMALY": 97.0962, "EPHEMERIS_TYPE": 0, "CLASSIFICATION_TYPE": "U", "NORAD_CAT_ID": 31186, "ELEMENT_SET_NO": 999, "REV_AT_EPOCH": 96286, "BSTAR": 0.00048627, "MEAN_MOTION_DOT": 8.62e-06, "MEAN_MOTION_DDOT": 0}, "tle": {"line1": "1 31186U 99025BJQ 25359.57172631  .00000862  00000+0  48627-3 0  9995", "line2": "2 31186  99.1790 275.2512 0026325  28.2591  97.0962 14.12928347962860"}}, "geometry": {"type": "Point", "coordinates": [-90.8546639370109, 42.37768664603979]}}, {"type": "Feature", "properties": {"norad_id": 31187, "name": "FENGYUN 1C DEB", "group": "fengyun-1c-debris", "lat": -38.90185998603331, "lon": -125.38144998276256, "alt_km": 822.0991817270615, "timestamp": "2025-12-27T21:25:02.795286+00:00", "meta": {"OBJECT_NAME": "FENGYUN 1C DEB", "OBJECT_ID": "1999-025BJR", "EPOCH": "2025-12-25T20:15:20.536416", "MEAN_MOTION": 14.59807877, "ECCENTRICITY": 0.0218863, "INCLINATION": 99.2406, "RA_OF_ASC_NODE": 224.7875, "ARG_OF_PERICENTER": 183.8683, "MEAN_ANOMALY": 176.0831, "EPHEMERIS_TYPE": 0, "CLASSIFICATION_TYPE": "U", "NORAD_CAT_ID": 31187, "ELEMENT_SET_NO": 999, "REV_AT_EPOCH": 69291, "BSTAR": 0.002922039, "MEAN_MOTION_DOT": 0.00019543, "MEAN_MOTION_DDOT": 0}, "tle": {"line1": "1 31187U 99025BJR 25359.84398769  .00019543  00000+0  29220-2 0  9991", "line2": "2 31187  99.2406 224.7875 0218863 183.8683 176.0831 14.59807877692911"}}, "geometry": {"type": "Point", "coordinates": [-125.38144998276256, -38.90185998603331]}}, {"type": "Feature", "properties": {"norad_id": 31188, "name": "FENGYUN 1C DEB", "group": "fengyun-1c-debris", "lat": -34.197668792919316, "lon": 75.60801800260285, "alt_km": 839.6294413296246, "timestamp": "2025-12-27T21:25:02.795296+00:00", "meta": {"OBJECT_NAME": "FENGYUN 1C DEB", "OBJECT_ID": "1999-025BJS", "EPOCH": "2025-12-27T12:04:35.570208", "MEAN_MOTION": 14.23923471, "ECCENTRICITY": 0.0061021, "INCLINATION": 98.7473, "RA_OF_ASC_NODE": 69.2153, "ARG_OF_PERICENTER": 207.1296, "MEAN_ANOMALY": 283.7217, "EPHEMERIS_TYPE": 0, "CLASSIFICATION_TYPE": "U", "NORAD_CAT_ID": 31188, "ELEMENT_SET_NO": 999, "REV_AT_EPOCH": 96546, "BSTAR": 0.0016462, "MEAN_MOTION_DOT": 3.804e-05, "MEAN_MOTION_DDOT": 0}, "tle": {"line1": "1 31188U 99025BJS 25361.50318947  .00003804  00000+0  16462-2 0  9995", "line2": "2 31188  98.7473  69.2153 0061021 207.1296 283.7217 14.23923471965460"}}, "geometry": {"type": "Point", "coordinates": [75.60801800260285, -34.197668792919316]}}, {"type": "Feature", "properties": {"norad_id": 31190, "name": "FENGYUN 1C DEB", "group": "fengyun-1c-debris", "lat": 77.17939259452237, "lon": -122.82082242681099, "alt_km": 896.4297178717479, "timestamp": "2025-12-27T21:25:02.795308+00:00", "meta": {"OBJECT_NAME": "FENGYUN 1C DEB", "OBJECT_ID": "1999-025BJU", "EPOCH": "2025-12-26T07:18:10.338912", "MEAN_MOTION": 14.03633883, "ECCENTRICITY": 0.0067717, "INCLINATION": 98.8194, "RA_OF_ASC_NODE": 12.6224, "ARG_OF_PERICENTER": 221.3183, "MEAN_ANOMALY": 138.285, "EPHEMERIS_TYPE": 0, "CLASSIFICATION_TYPE": "U", "NORAD_CAT_ID": 31190, "ELEMENT_SET_NO": 999, "REV_AT_EPOCH": 95737, "BSTAR": 0.00062245, "MEAN_MOTION_DOT": 9.55e-06, "MEAN_MOTION_DDOT": 0}, "tle": {"line1": "1 31190U 99025BJU 25360.30428633  .00000955  00000+0  62245-3 0  9994", "line2": "2 31190  98.8194  12.6224 0067717 221.3183 138.2850 14.03633883957377"}}, "geometry": {"type": "Point", "coordinates": [-122.82082242681099, 77.17939259452237]}}, {"type": "Feature", "properties": {"norad_id": 31191, "name": "FENGYUN 1C DEB", "group": "fengyun-1c-debris", "lat": -18.49911738005996, "lon": 80.22511980423279, "alt_km": 717.1625274486505, "timestamp": "2025-12-27T21:25:02.795319+00:00", "meta": {"OBJECT_NAME": "FENGYUN 1C DEB", "OBJECT_ID": "1999-025BJV", "EPOCH": "2025-12-27T03:50:16.442592", "MEAN_MOTION": 14.40822618, "ECCENTRICITY": 0.00929865, "INCLINATION": 98.7827, "RA_OF_ASC_NODE": 262.4381, "ARG_OF_PERICENTER": 151.4879, "MEAN_ANOMALY": 209.1441, "EPHEMERIS_TYPE": 0, "CLASSIFICATION_TYPE": "U", "NORAD_CAT_ID": 31191, "ELEMENT_SET_NO": 999, "REV_AT_EPOCH": 98220, "BSTAR": 0.000355259, "MEAN_MOTION_DOT": 1.149e-05, "MEAN_MOTION_DDOT": 0}, "tle": {"line1": "1 31191U 99025BJV 25361.15991253  .00001149  00000+0  35526-3 0  9990", "line2": "2 31191  98.7827 262.4381 0092986 151.4879 209.1441 14.40822618982201"}}, "geometry": {"type": "Point", "coordinates": [80.22511980423279, -18.49911738005996]}}, {"type": "Feature", "properties": {"norad_id": 31192, "name": "FENGYUN 1C DEB", "group": "fengyun-1c-debris", "lat": 76.19994844707301, "lon": -157.0936804070435, "alt_km": 671.4928032514581, "timestamp": "2025-12-27T21:25:02.795329+00:00", "meta": {"OBJECT_NAME": "FENGYUN 1C DEB", "OBJECT_ID": "1999-025BJW", "EPOCH": "2025-12-25T09:49:08.380128", "MEAN_MOTION": 14.20984359, "ECCENTRICITY": 0.0259636, "INCLINATION": 98.5541, "RA_OF_ASC_NODE": 342.7085, "ARG_OF_PERICENTER": 67.1108, "MEAN_ANOMALY": 295.7254, "EPHEMERIS_TYPE": 0, "CLASSIFICATION_TYPE": "U", "NORAD_CAT_ID": 31192, "ELEMENT_SET_NO": 999, "REV_AT_EPOCH": 96923, "BSTAR": 0.00037524, "MEAN_MOTION_DOT": 1.098e-05, "MEAN_MOTION_DDOT": 0}, "tle": {"line1": "1 31192U 99025BJW 25359.40912477  .00001098  00000+0  37524-3 0  9990", "line2": "2 31192  98.5541 342.7085 0259636  67.1108 295.7254 14.20984359969231"}}, "geometry": {"type": "Point", "coordinates": [-157.0936804070435, 76.19994844707301]}}, {"type": "Feature", "properties": {"norad_id": 31194, "name": "FENGYUN 1C DEB", "group": "fengyun-1c-debris", "lat": 20.272293596222017, "lon": 74.92240190350518, "alt_km": 758.4444837999863, "timestamp": "2025-12-27T21:25:02.795339+00:00", "meta": {"OBJECT_NAME": "FENGYUN 1C DEB", "OBJECT_ID": "1999-025BJY", "EPOCH": "2025-12-26T16:15:31.311936", "MEAN_MOTION": 14.36725859, "ECCENTRICITY": 0.0056619, "INCLINATION": 98.9636, "RA_OF_ASC_NODE": 250.316, "ARG_OF_PERICENTER": 237.7081, "MEAN_ANOMALY": 121.8612, "EPHEMERIS_TYPE": 0, "CLASSIFICATION_TYPE": "U", "NORAD_CAT_ID": 31194, "ELEMENT_SET_NO": 999, "REV_AT_EPOCH": 97327, "BSTAR": 0.00096651733, "MEAN_MOTION_DOT": 2.855e-05, "MEAN_MOTION_DDOT": 0}, "tle": {"line1": "1 31194U 99025BJY 25360.67744574  .00002855  00000+0  96652-3 0  9993", "line2": "2 31194  98.9636 250.3160 0056619 237.7081 121.8612 14.36725859973272"}}, "geometry": {"type": "Point", "coordinates": [74.92240190350518, 20.272293596222017]}}]}